LEMUR-2-STARLIGHT       
1 66783U 25276DY  26179.91776016  .00006290  00000+0  52017-3 0  9998
2 66783  97.5241 250.1554 0014650  94.4826 265.8072 14.99172539 31959
LEMUR-2-TARTIFLETTE     
1 66784U 25276DZ  26179.91609161  .00005188  00000+0  43002-3 0  9994
2 66784  97.5245 250.1615 0013644 101.8271 258.4484 14.99178588 31956
LEMUR-2-VUKASIN         
1 66785U 25276EA  26180.43318561  .00001464  00000+0  12096-3 0  9997
2 66785  97.5286 250.9877 0005266  95.5909 264.5916 15.00433902 31986
LEMUR-2-HOTSPUR-TOM     
1 66786U 25276EB  26180.51020101  .00005316  00000+0  44140-3 0  9992
2 66786  97.5238 250.7139 0014478  91.8132 268.4750 14.99085128 31973
LEMUR-2-MYRA            
1 66787U 25276EC  26179.93183483  .00006632  00000+0  53038-3 0  9998
2 66787  97.5220 250.4278 0017924 103.8595 256.4625 15.00404325 31977
LEMUR-2 FIKRETDENGIZ    
1 67363U 26004A   26180.50449468  .00003416  00000+0  37400-3 0  9994
2 67363  97.8013 178.8735 0010557  98.5624 261.6789 14.88412332 25110
TWILIGHT-1 OBJECT B     
1 67364U 26004B   26180.53427038  .00001886  00000+0  21262-3 0  9995
2 67364  97.8064 178.9123 0010278  89.6825 270.5569 14.87744362 25129
LEMUR-2-MARIO-SOUSA     
1 67365U 26004C   26179.94877180  .00004591  00000+0  49817-3 0  9998
2 67365  97.7986 178.3219 0010231 101.2397 258.9971 14.88605889 25045
LEMUR-2-SONNENBLUME     
1 67367U 26004E   26180.48667336  .00003028  00000+0  33251-3 0  9990
2 67367  97.7983 178.8313 0009717 101.1531 259.0779 14.88379508 25123
LEMUR-2-WOBLER          
1 67368U 26004F   26180.54564832  .00004089  00000+0  44438-3 0  9992
2 67368  97.8036 179.0241 0010056  92.4064 267.8304 14.88599018 25130
LEMUR-2-GRAM-E-SUE      
1 67370U 26004H   26180.53678744  .00002633  00000+0  28891-3 0  9990
2 67370  97.7970 178.8964 0008825 102.7415 257.4789 14.88523872 25131
LEMUR-2-KATIE           
1 67387U 26004AA  26180.51091071  .00002773  00000+0  29242-3 0  9994
2 67387  97.8033 179.3704 0004575  67.0576 293.1124 14.90121931 25141
LEMUR-2-HCS-BAZUS       
1 67388U 26004AB  26180.50962426  .00004524  00000+0  47256-3 0  9996
2 67388  97.8019 179.3489 0004002  65.3784 294.7850 14.90186651 25146
