OBJECT_NAME,OBJECT_ID,EPOCH,MEAN_MOTION,ECCENTRICITY,INCLINATION,RA_OF_ASC_NODE,ARG_OF_PERICENTER,MEAN_ANOMALY,EPHEMERIS_TYPE,CLASSIFICATION_TYPE,NORAD_CAT_ID,ELEMENT_SET_NO,REV_AT_EPOCH,BSTAR,MEAN_MOTION_DOT,MEAN_MOTION_DDOT
LEMUR-2-STARLIGHT,2025-276DY,2026-06-28T22:01:34.477824,14.99172539,.00146505,97.5241,250.1554,94.4826,265.8072,0,U,66783,999,3195,.52017111E-3,.629E-4,0
LEMUR-2-TARTIFLETTE,2025-276DZ,2026-06-28T21:59:10.315104,14.99178588,.00136446,97.5245,250.1615,101.8271,258.4484,0,U,66784,999,3195,.43001832E-3,.5188E-4,0
LEMUR-2-VUKASIN,2025-276EA,2026-06-29T10:23:47.236704,15.00433902,.0005266,97.5286,250.9877,95.5909,264.5916,0,U,66785,999,3198,.12096E-3,.1464E-4,0
LEMUR-2-HOTSPUR-TOM,2025-276EB,2026-06-29T12:14:41.367264,14.99085128,.0014478,97.5238,250.7139,91.8132,268.4750,0,U,66786,999,3197,.4414E-3,.5316E-4,0
LEMUR-2-MYRA,2025-276EC,2026-06-28T22:21:50.529312,15.00404325,.00179249,97.5220,250.4278,103.8595,256.4625,0,U,66787,999,3197,.53038219E-3,.6632E-4,0
LEMUR-2 FIKRETDENGIZ,2026-004A,2026-06-29T12:06:28.340352,14.88412332,.0010557,97.8013,178.8735,98.5624,261.6789,0,U,67363,999,2511,.374E-3,.3416E-4,0
TWILIGHT-1 OBJECT B,2026-004B,2026-06-29T12:49:20.960832,14.87744362,.0010278,97.8064,178.9123,89.6825,270.5569,0,U,67364,999,2512,.21262E-3,.1886E-4,0
LEMUR-2-MARIO-SOUSA,2026-004C,2026-06-28T22:46:13.883520,14.88605889,.00102319,97.7986,178.3219,101.2397,258.9971,0,U,67365,999,2504,.49816949E-3,.4591E-4,0
LEMUR-2-SONNENBLUME,2026-004E,2026-06-29T11:40:48.578304,14.88379508,.0009717,97.7983,178.8313,101.1531,259.0779,0,U,67367,999,2512,.33251E-3,.3028E-4,0
LEMUR-2-WOBLER,2026-004F,2026-06-29T13:05:44.014848,14.88599018,.0010056,97.8036,179.0241,92.4064,267.8304,0,U,67368,999,2513,.44438E-3,.4089E-4,0
LEMUR-2-GRAM-E-SUE,2026-004H,2026-06-29T12:52:58.434816,14.88523872,.0008825,97.7970,178.8964,102.7415,257.4789,0,U,67370,999,2513,.28891E-3,.2633E-4,0
LEMUR-2-KATIE,2026-004AA,2026-06-29T12:15:42.685344,14.90121931,.0004575,97.8033,179.3704,67.0576,293.1124,0,U,67387,999,2514,.29242E-3,.2773E-4,0
LEMUR-2-HCS-BAZUS,2026-004AB,2026-06-29T12:13:51.536064,14.90186651,.0004002,97.8019,179.3489,65.3784,294.7850,0,U,67388,999,2514,.47256E-3,.4524E-4,0
